ONEWEB-0641             
1 55805U 23029K   23260.74354817  .00000003  00000+0 -24443-4 0  9995
2 55805  87.9193 144.7103 0002188  76.0015 284.1360 13.19725448 27254
ONEWEB-0642             
1 55806U 23029L   23261.04208576 -.00000297  00000+0 -77399-3 0  9993
2 55806  87.9255 144.6146 0003401  83.4012 276.7507 13.19725413 27283
ONEWEB-0643             
1 55807U 23029M   23261.25001157  .00000013  00000+0  00000+0 0  9998
2 55807  87.9070 129.3696 0002758  42.1076 112.7988 13.16358013 28340
ONEWEB-0644             
1 55808U 23029N   23260.73406428 -.00000589  00000+0 -15035-2 0  9998
2 55808  87.9188 144.6993 0002544  72.5691 287.5719 13.19725671 27246
ONEWEB-0645             
1 55809U 23029P   23260.73014974  .00000281  00000+0  66932-3 0  9990
2 55809  87.9258 144.6720 0002402  83.5517 276.5889 13.19726004 27242
ONEWEB-0646             
1 55810U 23029Q   23261.06340447  .00003135  00000+0  77973-2 0  9993
2 55810  87.9251 144.6091 0002133  74.2228 285.9140 13.19712621 27272
ONEWEB-0648             
1 55811U 23029R   23261.25001157  .00000013  00000+0  00000+0 0  9993
2 55811  87.9125 129.3377 0002267  84.3991 241.3488 13.17883239 28349
ONEWEB-0649             
1 55812U 23029S   23261.10212154  .00001282  00000+0  31696-2 0  9996
2 55812  87.9179 144.6145 0002486  79.9266 280.2147 13.19724534 27314
